{"type": "FeatureCollection", "features": [{"type": "Feature", "properties": {"norad_id": 50032, "name": "COSMOS 1408 DEB", "group": "cosmos-1408-debris", "lat": -42.286850573183315, "lon": -112.4971213966382, "alt_km": 425.9442871834135, "timestamp": "2025-12-10T14:53:37.363256+00:00", "meta": {"OBJECT_NAME": "COSMOS 1408 DEB", "OBJECT_ID": "1982-092RU", "EPOCH": "2025-12-10T06:09:51.234336", "MEAN_MOTION": 15.45654436, "ECCENTRICITY": 0.00150478, "INCLINATION": 82.5641, "RA_OF_ASC_NODE": 61.0534, "ARG_OF_PERICENTER": 218.1107, "MEAN_ANOMALY": 141.9079, "EPHEMERIS_TYPE": 0, "CLASSIFICATION_TYPE": "U", "NORAD_CAT_ID": 50032, "ELEMENT_SET_NO": 999, "REV_AT_EPOCH": 22565, "BSTAR": 0.00016026618, "MEAN_MOTION_DOT": 7.796e-05, "MEAN_MOTION_DDOT": 0}, "tle": {"line1": "1 50032U 82092RU  25344.25684299  .00007796  00000+0  16027-3 0  9991", "line2": "2 50032  82.5641  61.0534 0015047 218.1107 141.9079 15.45654436225658"}}, "geometry": {"type": "Point", "coordinates": [-112.4971213966382, -42.286850573183315]}}, {"type": "Feature", "properties": {"norad_id": 50058, "name": "COSMOS 1408 DEB", "group": "cosmos-1408-debris", "lat": -73.52375125888167, "lon": 45.53845960524016, "alt_km": 394.8760583015801, "timestamp": "2025-12-10T14:53:37.363274+00:00", "meta": {"OBJECT_NAME": "COSMOS 1408 DEB", "OBJECT_ID": "1982-092SW", "EPOCH": "2025-12-10T07:32:15.069120", "MEAN_MOTION": 15.63871955, "ECCENTRICITY": 0.00164904, "INCLINATION": 82.6126, "RA_OF_ASC_NODE": 71.8794, "ARG_OF_PERICENTER": 107.0459, "MEAN_ANOMALY": 253.2608, "EPHEMERIS_TYPE": 0, "CLASSIFICATION_TYPE": "U", "NORAD_CAT_ID": 50058, "ELEMENT_SET_NO": 999, "REV_AT_EPOCH": 22766, "BSTAR": 0.00047417858, "MEAN_MOTION_DOT": 0.00044963, "MEAN_MOTION_DDOT": 0}, "tle": {"line1": "1 50058U 82092SW  25344.31406330  .00044963  00000+0  47418-3 0  9999", "line2": "2 50058  82.6126  71.8794 0016490 107.0459 253.2608 15.63871955227666"}}, "geometry": {"type": "Point", "coordinates": [45.53845960524016, -73.52375125888167]}}, {"type": "Feature", "properties": {"norad_id": 50404, "name": "COSMOS 1408 DEB", "group": "cosmos-1408-debris", "lat": 57.20531779077862, "lon": -130.5195215942898, "alt_km": 621.5089625102519, "timestamp": "2025-12-10T14:53:37.363285+00:00", "meta": {"OBJECT_NAME": "COSMOS 1408 DEB", "OBJECT_ID": "1982-092ADS", "EPOCH": "2025-12-10T01:55:59.645280", "MEAN_MOTION": 15.13181066, "ECCENTRICITY": 0.01731067, "INCLINATION": 82.2033, "RA_OF_ASC_NODE": 217.7549, "ARG_OF_PERICENTER": 208.0507, "MEAN_ANOMALY": 151.1318, "EPHEMERIS_TYPE": 0, "CLASSIFICATION_TYPE": "U", "NORAD_CAT_ID": 50404, "ELEMENT_SET_NO": 999, "REV_AT_EPOCH": 21153, "BSTAR": 0.0036852181, "MEAN_MOTION_DOT": 0.00095791, "MEAN_MOTION_DDOT": 0}, "tle": {"line1": "1 50404U 82092ADS 25344.08055145  .00095791  00000+0  36852-2 0  9996", "line2": "2 50404  82.2033 217.7549 0173106 208.0507 151.1318 15.13181066211532"}}, "geometry": {"type": "Point", "coordinates": [-130.5195215942898, 57.20531779077862]}}, {"type": "Feature", "properties": {"norad_id": 50621, "name": "COSMOS 1408 DEB", "group": "cosmos-1408-debris", "lat": -2.531601652562265, "lon": 76.05597499321358, "alt_km": 419.9303164405792, "timestamp": "2025-12-10T14:53:37.363295+00:00", "meta": {"OBJECT_NAME": "COSMOS 1408 DEB", "OBJECT_ID": "1982-092ALR", "EPOCH": "2025-12-10T05:38:48.718176", "MEAN_MOTION": 15.56453905, "ECCENTRICITY": 0.0028809, "INCLINATION": 82.5696, "RA_OF_ASC_NODE": 76.7876, "ARG_OF_PERICENTER": 161.6015, "MEAN_ANOMALY": 198.6289, "EPHEMERIS_TYPE": 0, "CLASSIFICATION_TYPE": "U", "NORAD_CAT_ID": 50621, "ELEMENT_SET_NO": 999, "REV_AT_EPOCH": 22211, "BSTAR": 0.00053172941, "MEAN_MOTION_DOT": 0.00038461, "MEAN_MOTION_DDOT": 0}, "tle": {"line1": "1 50621U 82092ALR 25344.23528609  .00038461  00000+0  53173-3 0  9991", "line2": "2 50621  82.5696  76.7876 0028809 161.6015 198.6289 15.56453905222114"}}, "geometry": {"type": "Point", "coordinates": [76.05597499321358, -2.531601652562265]}}]}